{"type": "FeatureCollection", "features": [ {"type": "Feature", "properties": {"norad_id": 66840, "name": "STARLINK-35837", "group": "last-30-days", "lat": 68.93544852755917, "lon": -131.2175714004254, "alt_km": 405.73657749308404, "timestamp": "2025-12-27T13:34:48.007587+00:00", "meta": {"OBJECT_NAME": "STARLINK-35837", "OBJECT_ID": "2025-280V", "EPOCH": "2025-12-27T06:00:02.000160", "MEAN_MOTION": 15.52855543, "ECCENTRICITY": 0.00036002, "INCLINATION": 70.0009, "RA_OF_ASC_NODE": 158.6286, "ARG_OF_PERICENTER": 274.5974, "MEAN_ANOMALY": 204.199, "EPHEMERIS_TYPE": 0, "CLASSIFICATION_TYPE": "U", "NORAD_CAT_ID": 66840, "ELEMENT_SET_NO": 999, "REV_AT_EPOCH": 522, "BSTAR": -0.02011844, "MEAN_MOTION_DOT": -0.01131534, "MEAN_MOTION_DDOT": 0}, "tle": {"line1": "1 66840U 25280V   25361.25002315 -.01131534  00000+0 -20118-1 0  9998", "line2": "2 66840  70.0009 158.6286 0003600 274.5974 204.1990 15.52855543  5222"}}, "geometry": {"type": "Point", "coordinates": [-131.2175714004254, 68.93544852755917]}}, {"type": "Feature", "properties": {"norad_id": 66841, "name": "STARLINK-35715", "group": "last-30-days", "lat": 69.44334456076011, "lon": -126.01522815368482, "alt_km": 405.76625982880523, "timestamp": "2025-12-27T13:34:48.007597+00:00", "meta": {"OBJECT_NAME": "STARLINK-35715", "OBJECT_ID": "2025-280W", "EPOCH": "2025-12-27T06:00:02.000160", "MEAN_MOTION": 15.52848926, "ECCENTRICITY": 0.00036575, "INCLINATION": 70.0004, "RA_OF_ASC_NODE": 158.6261, "ARG_OF_PERICENTER": 270.1487, "MEAN_ANOMALY": 210.5687, "EPHEMERIS_TYPE": 0, "CLASSIFICATION_TYPE": "U", "NORAD_CAT_ID": 66841, "ELEMENT_SET_NO": 999, "REV_AT_EPOCH": 522, "BSTAR": -0.019920216, "MEAN_MOTION_DOT": -0.01121216, "MEAN_MOTION_DDOT": 0}, "tle": {"line1": "1 66841U 25280W   25361.25002315 -.01121216  00000+0 -19920-1 0  9994", "line2": "2 66841  70.0004 158.6261 0003657 270.1487 210.5687 15.52848926  5225"}}, "geometry": {"type": "Point", "coordinates": [-126.01522815368482, 69.44334456076011]}}, {"type": "Feature", "properties": {"norad_id": 66842, "name": "STARLINK-35769", "group": "last-30-days", "lat": 69.80385771369751, "lon": -120.2958462646893, "alt_km": 404.2955139394162, "timestamp": "2025-12-27T13:34:48.007607+00:00", "meta": {"OBJECT_NAME": "STARLINK-35769", "OBJECT_ID": "2025-280X", "EPOCH": "2025-12-27T06:00:02.000160", "MEAN_MOTION": 15.5248913, "ECCENTRICITY": 0.00033498, "INCLINATION": 70.0004, "RA_OF_ASC_NODE": 158.6229, "ARG_OF_PERICENTER": 269.0986, "MEAN_ANOMALY": 213.5997, "EPHEMERIS_TYPE": 0, "CLASSIFICATION_TYPE": "U", "NORAD_CAT_ID": 66842, "ELEMENT_SET_NO": 999, "REV_AT_EPOCH": 522, "BSTAR": 0.00041112584, "MEAN_MOTION_DOT": 0.00025178, "MEAN_MOTION_DDOT": 0}, "tle": {"line1": "1 66842U 25280X   25361.25002315  .00025178  00000+0  41113-3 0  9993", "line2": "2 66842  70.0004 158.6229 0003349 269.0986 213.5997 15.52489130  5224"}}, "geometry": {"type": "Point", "coordinates": [-120.2958462646893, 69.80385771369751]}}, {"type": "Feature", "properties": {"norad_id": 66843, "name": "STARLINK-35997", "group": "last-30-days", "lat": 69.96065271693145, "lon": -109.16839889600861, "alt_km": 404.350531070153, "timestamp": "2025-12-27T13:34:48.007616+00:00", "meta": {"OBJECT_NAME": "STARLINK-35997", "OBJECT_ID": "2025-280Y", "EPOCH": "2025-12-27T06:00:02.000160", "MEAN_MOTION": 15.52420921, "ECCENTRICITY": 0.00034665, "INCLINATION": 70.0005, "RA_OF_ASC_NODE": 158.6168, "ARG_OF_PERICENTER": 270.2453, "MEAN_ANOMALY": 216.3112, "EPHEMERIS_TYPE": 0, "CLASSIFICATION_TYPE": "U", "NORAD_CAT_ID": 66843, "ELEMENT_SET_NO": 999, "REV_AT_EPOCH": 522, "BSTAR": 0.0022831112, "MEAN_MOTION_DOT": 0.00142335, "MEAN_MOTION_DDOT": 0}, "tle": {"line1": "1 66843U 25280Y   25361.25002315  .00142335  00000+0  22831-2 0  9994", "line2": "2 66843  70.0005 158.6168 0003466 270.2453 216.3112 15.52420921  5224"}}, "geometry": {"type": "Point", "coordinates": [-109.16839889600861, 69.96065271693145]}}, {"type": "Feature", "properties": {"norad_id": 66844, "name": "STARLINK-36073", "group": "last-30-days", "lat": 69.27769256714753, "lon": -96.562421255787, "alt_km": 396.60093789065286, "timestamp": "2025-12-27T13:34:48.007628+00:00", "meta": {"OBJECT_NAME": "STARLINK-36073", "OBJECT_ID": "2025-280Z", "EPOCH": "2025-12-27T02:21:53.577792", "MEAN_MOTION": 15.54595499, "ECCENTRICITY": 0.00058924, "INCLINATION": 70.0006, "RA_OF_ASC_NODE": 159.0337, "ARG_OF_PERICENTER": 296.8217, "MEAN_ANOMALY": 63.2368, "EPHEMERIS_TYPE": 0, "CLASSIFICATION_TYPE": "U", "NORAD_CAT_ID": 66844, "ELEMENT_SET_NO": 999, "REV_AT_EPOCH": 513, "BSTAR": 0.017679029, "MEAN_MOTION_DOT": 0.01296652, "MEAN_MOTION_DDOT": 0}, "tle": {"line1": "1 66844U 25280Z   25361.09853678  .01296652  00000+0  17679-1 0  9999", "line2": "2 66844  70.0006 159.0337 0005892 296.8217  63.2368 15.54595499  5133"}}, "geometry": {"type": "Point", "coordinates": [-96.562421255787, 69.27769256714753]}}, {"type": "Feature", "properties": {"norad_id": 66845, "name": "STARLINK-36068", "group": "last-30-days", "lat": 68.85417471356959, "lon": -92.58250884214839, "alt_km": 403.89901214941256, "timestamp": "2025-12-27T13:34:48.007641+00:00", "meta": {"OBJECT_NAME": "STARLINK-36068", "OBJECT_ID": "2025-280AA", "EPOCH": "2025-12-27T03:53:11.312736", "MEAN_MOTION": 15.5256967, "ECCENTRICITY": 0.00033721, "INCLINATION": 70.0009, "RA_OF_ASC_NODE": 158.852, "ARG_OF_PERICENTER": 273.055, "MEAN_ANOMALY": 87.0251, "EPHEMERIS_TYPE": 0, "CLASSIFICATION_TYPE": "U", "NORAD_CAT_ID": 66845, "ELEMENT_SET_NO": 999, "REV_AT_EPOCH": 517, "BSTAR": 0.0021462655, "MEAN_MOTION_DOT": 0.00134372, "MEAN_MOTION_DDOT": 0}, "tle": {"line1": "1 66845U 25280AA  25361.16193649  .00134372  00000+0  21463-2 0  9999", "line2": "2 66845  70.0009 158.8520 0003372 273.0550  87.0251 15.52569670  5175"}}, "geometry": {"type": "Point", "coordinates": [-92.58250884214839, 68.85417471356959]}}, {"type": "Feature", "properties": {"norad_id": 66846, "name": "STARLINK-36055", "group": "last-30-days", "lat": 68.0116403567184, "lon": -86.67768771865111, "alt_km": 396.7007539805318, "timestamp": "2025-12-27T13:34:48.007651+00:00", "meta": {"OBJECT_NAME": "STARLINK-36055", "OBJECT_ID": "2025-280AB", "EPOCH": "2025-12-27T02:20:54.103488", "MEAN_MOTION": 15.54614248, "ECCENTRICITY": 0.00057054, "INCLINATION": 70.0008, "RA_OF_ASC_NODE": 159.03, "ARG_OF_PERICENTER": 306.3911, "MEAN_ANOMALY": 53.6751, "EPHEMERIS_TYPE": 0, "CLASSIFICATION_TYPE": "U", "NORAD_CAT_ID": 66846, "ELEMENT_SET_NO": 999, "REV_AT_EPOCH": 516, "BSTAR": 0.015936585, "MEAN_MOTION_DOT": 0.01156943, "MEAN_MOTION_DDOT": 0}, "tle": {"line1": "1 66846U 25280AB  25361.09784842  .01156943  00000+0  15937-1 0  9990", "line2": "2 66846  70.0008 159.0300 0005705 306.3911  53.6751 15.54614248  5164"}}, "geometry": {"type": "Point", "coordinates": [-86.67768771865111, 68.0116403567184]}}, {"type": "Feature", "properties": {"norad_id": 66847, "name": "STARLINK-36061", "group": "last-30-days", "lat": 69.45242559228353, "lon": -98.58259512397825, "alt_km": 405.860177269984, "timestamp": "2025-12-27T13:34:48.007661+00:00", "meta": {"OBJECT_NAME": "STARLINK-36061", "OBJECT_ID": "2025-280AC", "EPOCH": "2025-12-27T06:00:02.000160", "MEAN_MOTION": 15.52895237, "ECCENTRICITY": 0.00033439, "INCLINATION": 70.0007, "RA_OF_ASC_NODE": 158.6144, "ARG_OF_PERICENTER": 278.6111, "MEAN_ANOMALY": 211.6783, "EPHEMERIS_TYPE": 0, "CLASSIFICATION_TYPE": "U", "NORAD_CAT_ID": 66847, "ELEMENT_SET_NO": 999, "REV_AT_EPOCH": 517, "BSTAR": -0.023890184, "MEAN_MOTION_DOT": -0.01344102, "MEAN_MOTION_DDOT": 0}, "tle": {"line1": "1 66847U 25280AC  25361.25002315 -.01344102  00000+0 -23890-1 0  9992", "line2": "2 66847  70.0007 158.6144 0003343 278.6111 211.6783 15.52895237  5173"}}, "geometry": {"type": "Point", "coordinates": [-98.58259512397825, 69.45242559228353]}}, {"type": "Feature", "properties": {"norad_id": 66848, "name": "STARLINK-36091", "group": "last-30-days", "lat": -35.20296474678641, "lon": -97.83234068335547, "alt_km": 417.5029220119277, "timestamp": "2025-12-27T13:34:48.007673+00:00", "meta": {"OBJECT_NAME": "STARLINK-36091", "OBJECT_ID": "2025-281A", "EPOCH": "2025-12-27T06:00:02.000160", "MEAN_MOTION": 15.5051134, "ECCENTRICITY": 0.00010519, "INCLINATION": 43.0002, "RA_OF_ASC_NODE": 34.8067, "ARG_OF_PERICENTER": 266.0265, "MEAN_ANOMALY": 6.7268, "EPHEMERIS_TYPE": 0, "CLASSIFICATION_TYPE": "U", "NORAD_CAT_ID": 66848, "ELEMENT_SET_NO": 999, "REV_AT_EPOCH": 371, "BSTAR": 0.0011494883, "MEAN_MOTION_DOT": 0.00067513, "MEAN_MOTION_DDOT": 0}, "tle": {"line1": "1 66848U 25281A   25361.25002315  .00067513  00000+0  11495-2 0  9998", "line2": "2 66848  43.0002  34.8067 0001051 266.0265   6.7268 15.50511340  3710"}}, "geometry": {"type": "Point", "coordinates": [-97.83234068335547, -35.20296474678641]}}, {"type": "Feature", "properties": {"norad_id": 66849, "name": "STARLINK-36102", "group": "last-30-days", "lat": -36.03689917318384, "lon": -95.7187463705409, "alt_km": 417.48917096768037, "timestamp": "2025-12-27T13:34:48.007683+00:00", "meta": {"OBJECT_NAME": "STARLINK-36102", "OBJECT_ID": "2025-281B", "EPOCH": "2025-12-27T06:00:02.000160", "MEAN_MOTION": 15.50511729, "ECCENTRICITY": 0.00010749, "INCLINATION": 43.0001, "RA_OF_ASC_NODE": 34.8011, "ARG_OF_PERICENTER": 260.5235, "MEAN_ANOMALY": 14.1443, "EPHEMERIS_TYPE": 0, "CLASSIFICATION_TYPE": "U", "NORAD_CAT_ID": 66849, "ELEMENT_SET_NO": 999, "REV_AT_EPOCH": 371, "BSTAR": 0.0011583052, "MEAN_MOTION_DOT": 0.00068039, "MEAN_MOTION_DDOT": 0}, "tle": {"line1": "1 66849U 25281B   25361.25002315  .00068039  00000+0  11583-2 0  9991", "line2": "2 66849  43.0001  34.8011 0001074 260.5235  14.1443 15.50511729  3719"}}, "geometry": {"type": "Point", "coordinates": [-95.7187463705409, -36.03689917318384]}}]}